1 29155U 06018A   10047.26003534 -.00000083 +00000-0 +10000-3 0 09752
2 29155 000.4736 089.6136 0002450 172.3427 232.4374 01.00272163013702